{"type":"FeatureCollection","features":[{"type":"Feature","geometry":{"type":"MultiPolygon","coordinates":[[[[82.14855103399287,23.22008886228528],[82.14519725968326,23.22676794898565],[82.15305655492779,23.23044586333175],[82.15980424782686,23.24640587366566],[82.16683237562297,23.24569167027235],[82.17416729194562,23.26850129558027],[82.19275523670937,23.27695517130383],[82.19212273857683,23.28902096456367],[82.19914965068097,23.31372675821935],[82.19178108834728,23.32678416036417],[82.16328847845108,23.33462797382585],[82.16186642282584,23.34274190764363],[82.1462937012639,23.36072044442188],[82.12436101919342,23.35377602928469],[82.11675933623945,23.35558909365032],[82.11005601537178,23.36292606941349],[82.11414619367928,23.38228798536742],[82.10413591777575,23.39779713117526],[82.09270663832255,23.3927744227805],[82.09166058389918,23.39832531007292],[82.07042013043319,23.39104351763582],[82.06398408991728,23.39307672099061],[82.05526160924576,23.37676308865907],[82.0441033215641,23.38025195506301],[82.03766173403172,23.38843744631864],[82.03219094194006,23.38237964644761],[82.0214533276501,23.38764856332086],[82.02871968431754,23.39974703575778],[82.02354465099543,23.40856477129432],[82.03252343134396,23.41000427501875],[82.02523660635305,23.42505417208608],[82.00910138107321,23.41209757343955],[81.99981968478464,23.4215638516952],[81.9872401127193,23.41413448028485],[81.98368128258558,23.41817193012147],[81.97696381787945,23.4235716517298],[81.98366123439921,23.42925405047022],[81.97792494249761,23.44207807808849],[81.98003861757164,23.44767009571244],[81.96493349917391,23.4656717125085],[81.95501609528817,23.46713776074514],[81.957816436925,23.50094672617866],[81.94230725159414,23.50553647321295],[81.93757047555663,23.51648091047506],[81.91711786302405,23.53528354441349],[81.90765124185016,23.53537473604856],[81.87618425994022,23.51298304916084],[81.86317713329974,23.51761513459339],[81.83664595537705,23.51080238151014],[81.82019103374918,23.51566186916054],[81.8167813904629,23.54109567082608],[81.80872523522328,23.54954355023881],[81.75801183973377,23.54986034810234],[81.75470126050429,23.56548381641706],[81.74685937324926,23.57005670215583],[81.7254384450156,23.55714867734342],[81.72279173930598,23.54350639795321],[81.71534683570033,23.54076930486306],[81.70000527125244,23.52209074733256],[81.69059955938262,23.52839802109691],[81.66878979192991,23.53289643964276],[81.65997149743981,23.5294722378722],[81.66251947824607,23.51402177539601],[81.65421250580911,23.49814645134546],[81.64196127051711,23.49877653297369],[81.63398170130074,23.48974724432749],[81.62707812517375,23.49100814757042],[81.61169886865363,23.51167458703999],[81.61640615724355,23.52888532720152],[81.61008138971684,23.55577825654557],[81.58361917290422,23.5540668766041],[81.57693108659882,23.58537515662614],[81.58949992935393,23.59601749614445],[81.59670932829209,23.59230276601674],[81.61194270081195,23.59523601652686],[81.60660333533895,23.61381621283769],[81.61444424911136,23.62266701045273],[81.62032639859461,23.65107557750068],[81.61419992119808,23.66290668079004],[81.64453059552312,23.65703874450347],[81.65511898560831,23.66285738204111],[81.65566066942725,23.68197501664472],[81.68427438775386,23.69097359187851],[81.69603783638247,23.72114308491205],[81.67873594798175,23.7390844507264],[81.68687508208106,23.74715400054612],[81.68158101421204,23.7536762974756],[81.64490387984188,23.76969827478897],[81.651585655874,23.79924450821354],[81.63523058144233,23.83498024898089],[81.61615865695147,23.8332414912296],[81.61126922900026,23.83682723387035],[81.6038776572571,23.85942129477065],[81.61485423021391,23.86170076866505],[81.62219268797078,23.87049910428926],[81.60378856827235,23.88450186373104],[81.61177293255147,23.89266008224167],[81.61041407125312,23.90412078622934],[81.63258261843053,23.90580324369374],[81.65828265065745,23.91639470671487],[81.66241694600485,23.92410880478843],[81.6680087417746,23.92519610871069],[81.6728980458028,23.91292070541812],[81.68338821259194,23.91112880924712],[81.68800342995895,23.9058044924402],[81.69083376928123,23.88440589797253],[81.70680754014147,23.88326567432689],[81.70403873194739,23.8755530969731],[81.70979814181577,23.87142738611013],[81.7075163730944,23.86088887755923],[81.71941663876204,23.86230165701215],[81.73158481315119,23.85714164643185],[81.72511575410616,23.84003282616225],[81.73734392670724,23.83932692469419],[81.78808800646108,23.81065790962783],[81.7928406698987,23.80990937401594],[81.7948094841283,23.81486835576558],[81.80825805834802,23.81357831690217],[81.81518537839524,23.80644592024192],[81.83684935485019,23.81615771966795],[81.83807042357729,23.8211867004953],[81.86299976790647,23.82451464857073],[81.86747674645697,23.83409283391172],[81.8877838185852,23.83531547561058],[81.89898984946878,23.8407492760992],[81.92167719959981,23.87097471014391],[81.93926018618005,23.86798556109632],[81.93892507386795,23.86194257200442],[81.94646176096285,23.86214572235978],[81.95814054460686,23.85222994746514],[81.98620570509667,23.86214553032459],[82.00882849623356,23.86121833496467],[82.02053588096136,23.84927890998777],[82.04436032878691,23.84199036669604],[82.03948780096817,23.82652192177395],[82.04944407847432,23.82458077773413],[82.05351551145388,23.81882662085784],[82.08354554468184,23.81586446945669],[82.11686614984039,23.81746814659576],[82.12367705514404,23.82254116450453],[82.14233213497066,23.81600338850664],[82.16413030867962,23.82117745524401],[82.17174902077102,23.81871747097519],[82.17885257934253,23.82210261009935],[82.18114022369492,23.83675477473274],[82.21174226658083,23.85222001778453],[82.21546208494628,23.84127553617767],[82.20648708367551,23.82772647339223],[82.2256025785653,23.82027552966219],[82.22712950327634,23.80847757032974],[82.23187674813605,23.80546861113043],[82.2605914437552,23.82127917535699],[82.28162149178499,23.81702242987302],[82.29875236626,23.80703600382216],[82.30480694492591,23.80743157719815],[82.30576169868489,23.8117621477511],[82.31748419777037,23.81179822697105],[82.33463614766167,23.80258582727534],[82.33833037080113,23.8069332264883],[82.35263276653873,23.80356537492595],[82.37694993058308,23.81107907946117],[82.39345998086883,23.79993943417012],[82.4232378282645,23.80463239680507],[82.44063173293661,23.80282927962242],[82.45376139022599,23.81158720216548],[82.46923772874567,23.81109867026373],[82.47903711304029,23.80599234648062],[82.49597636196397,23.78591055790528],[82.52443999940515,23.78378086728474],[82.53810606646637,23.79429082816611],[82.55145276089446,23.79068212806566],[82.54842021674861,23.80858928125598],[82.53305221490311,23.82218649411072],[82.55423051057747,23.82623906001051],[82.56473935947393,23.8207862818027],[82.57317304145344,23.8241022105933],[82.59079571727148,23.82212694647217],[82.60753760290532,23.8333324820408],[82.63564983468027,23.83763164247142],[82.63839337993242,23.84791509508114],[82.64761184738602,23.84877196353822],[82.64697494976237,23.85905337429046],[82.65978587004692,23.85444993631727],[82.66051358394263,23.8624165571912],[82.6646068141405,23.86375940193086],[82.66857802510987,23.87175103143966],[82.65119872415428,23.890124850639],[82.66156722731623,23.90768433587523],[82.68886094196812,23.909840995509],[82.69339889974009,23.92024196780539],[82.69725350373668,23.91965359614979],[82.70348423814224,23.92453084411517],[82.74778261856282,23.92031813105143],[82.75483293424047,23.92218511771815],[82.75463307433655,23.93579356358426],[82.77973959430297,23.93886562754023],[82.79698771797673,23.95190336285874],[82.79970629131219,23.96135296951391],[82.8116238444547,23.96112467250265],[82.82714344392309,23.96263485166474],[82.83671160870959,23.95741487626759],[82.86055951078181,23.93867544886199],[82.86623847506742,23.92423715951943],[82.884045819858,23.90906852943994],[82.92865083558642,23.89117107028122],[82.93679931009146,23.87753230781499],[82.95204838995312,23.87081299346207],[82.99596134687103,23.87275331555358],[83.00127881938539,23.87700749322509],[83.03382178204481,23.87993162969978],[83.05331421386546,23.87965165351357],[83.07534985639643,23.87029720785001],[83.09310515288145,23.87199263185716],[83.14157218757856,23.8850147335578],[83.1598089668714,23.90770791929162],[83.17141336110271,23.90805482695411],[83.19060432277345,23.91756901084299],[83.20042649992344,23.91546659526868],[83.20840242044518,23.9130558085765],[83.21115097698252,23.90598965832201],[83.19638818875028,23.89118782528757],[83.2115937395358,23.87330297589561],[83.2435835710239,23.87423935290344],[83.24601567855007,23.88191791860886],[83.25743286377177,23.88742809166716],[83.26899008349945,23.88464629867774],[83.3183542362043,23.90089725926438],[83.33487063166028,23.8975359904838],[83.33926388228473,23.88630008655251],[83.35452052983315,23.87714166878042],[83.35019138585182,23.85211409899463],[83.33757146875116,23.83856379866655],[83.33815297810881,23.80521896726204],[83.35118489637136,23.79235986395689],[83.37082039234232,23.7929244353706],[83.38784329001014,23.78733807513376],[83.38689004955476,23.78405921574351],[83.36886744578409,23.78236346281568],[83.35972362169503,23.7575446970289],[83.3681093041173,23.74728294019724],[83.3982370539224,23.73067233435791],[83.4103126211613,23.71410794286252],[83.4225139732572,23.70860566977975],[83.42103736888154,23.70026016484946],[83.42844200968727,23.69203462519816],[83.42114095474146,23.68005756004273],[83.41890837714433,23.66357622605264],[83.41049866571169,23.65950312342302],[83.39959685510945,23.64214346549077],[83.38891233182373,23.64060626301575],[83.38334773765888,23.62893857549834],[83.39260779665527,23.58376635993218],[83.37411549718823,23.58038594085029],[83.3642008675747,23.5829057855176],[83.35586247997999,23.57399453057978],[83.34145704702743,23.57650429705354],[83.33278074462648,23.56148940287982],[83.29265546434448,23.56303092145542],[83.28988598268597,23.55399988533398],[83.25310298001472,23.5409531576023],[83.25131621801721,23.51956461263868],[83.25613643610804,23.5117529984839],[83.27479874525172,23.51597264061301],[83.31601552653744,23.50999002007565],[83.33664027731851,23.51502781188668],[83.36009598687609,23.51464828364617],[83.40383536086455,23.51308570089104],[83.42401802107993,23.52798295895702],[83.42893141171852,23.54724325978853],[83.44124698513836,23.54811301794774],[83.44800415133834,23.5418309654847],[83.4557346927374,23.51909018689806],[83.45374712415791,23.50345650685594],[83.44584844357776,23.49378165155005],[83.4209269005824,23.49101330499844],[83.40964263996844,23.47081484971996],[83.39790155750815,23.46233096367975],[83.4060473910304,23.45961102942378],[83.39970704647743,23.4457709879096],[83.41306580095139,23.43999157887845],[83.41804297481721,23.42554303676128],[83.42498142448166,23.42444249657071],[83.44165841757754,23.44102520308422],[83.44539117501395,23.46099362326121],[83.45027991321992,23.46301236659643],[83.4568754091887,23.46054844866494],[83.46136849111673,23.43847361111993],[83.46583066763631,23.43657300110981],[83.46738021654023,23.44718963077915],[83.47948929405949,23.44738595897466],[83.48413465989995,23.42897173021968],[83.490194012719,23.43521844683743],[83.4987636962314,23.4310528317611],[83.5262908266267,23.4298317958559],[83.54236813509993,23.42122585817791],[83.55417538445049,23.4220293702175],[83.5620984823979,23.42532818901475],[83.56555940417653,23.43303967628252],[83.55880342762062,23.45803012202485],[83.58414130124766,23.45569984910413],[83.60323041463113,23.44754660118301],[83.62829811186828,23.45852092804742],[83.65408420110934,23.50088116101939],[83.6659586620923,23.48975675336587],[83.69418458525088,23.49608610534413],[83.71166957163763,23.48729933695862],[83.73601421525774,23.50378505319472],[83.7400621360865,23.52046482184896],[83.73090977966501,23.55047025582706],[83.74176661476251,23.57178086584194],[83.7555582339234,23.5667539045817],[83.75898889117774,23.54271814354382],[83.78313633589077,23.54219207470593],[83.78191079925799,23.55478587489395],[83.79002039377035,23.57693093376591],[83.76744405398448,23.59590621615772],[83.7668464062448,23.60577135595839],[83.77364550141539,23.61005773731197],[83.80056986769353,23.6018740627365],[83.80686440253405,23.58744064842743],[83.81535842685696,23.59589525966375],[83.8261149379273,23.59035228826147],[83.88802092339695,23.57844145274006],[83.89908361226358,23.58235187445085],[83.93761103882596,23.56876625580595],[83.93895937117651,23.59014201768808],[83.93282846967846,23.60066739810284],[83.93148623988601,23.6199268538167],[83.94681108512887,23.6264644742895],[83.98039097583933,23.62491221981815],[83.98071335157884,23.63359000316916],[84.01600596875599,23.63425250687608],[84.00766646464733,23.62259050841142],[84.0168713304496,23.60825729320685],[84.02986129892757,23.6001470918165],[84.02954243759655,23.56729738670364],[84.02470413268792,23.55494518997151],[84.02788230386837,23.54576520911126],[84.01732011542808,23.52269541589286],[84.01441654069939,23.50339436199815],[84.00076561201253,23.4968809002933],[83.9849614308091,23.46551102289425],[83.97419191339492,23.46021485089719],[83.98577987121526,23.42566382649916],[83.96708394209179,23.38765791077458],[83.98032987016006,23.3646894889582],[84.01066295231611,23.35430568068926],[84.02311367098312,23.37772585168197],[84.05049681256536,23.37480499522295],[84.0471576545919,23.37086222485183],[84.05248418975671,23.36704486807982],[84.05402742897164,23.35233775459868],[84.07466231216887,23.3336379935286],[84.06195742991946,23.30803138506145],[84.06787335566815,23.29428262911295],[84.06278007129147,23.28917372590293],[84.06448379069617,23.27528861512906],[84.05368869123878,23.24611478877657],[84.05910047869789,23.23589569397798],[84.05562894350172,23.22020879537988],[84.06317066662541,23.20568552529328],[84.0552509161745,23.19216767801365],[84.04283967625729,23.18288370785856],[84.03774032169531,23.17068093580332],[84.03180528805532,23.15815534004973],[84.03713783361835,23.14044895599355],[84.05846952376906,23.12607488012285],[84.06317469622809,23.11306803575011],[84.07239726360066,23.10906129700296],[84.09344486072663,23.11256536704645],[84.10580759248488,23.10502550649913],[84.11509452943787,23.09038118631114],[84.12655009459621,23.08921102114037],[84.13344867048497,23.083004396132],[84.13435101256619,23.07003471292504],[84.12616834090666,23.05804167163807],[84.12548562386989,23.03616616747371],[84.14661862387834,22.99125489234239],[84.14938448114953,22.96565439947267],[84.17181878052482,22.97052511152428],[84.17632957555395,22.97682400758536],[84.17452501591269,22.99773095685431],[84.17910054159496,23.00054792080001],[84.175311008905,23.01040961672673],[84.1805287577189,23.0258704676615],[84.18579364375,23.02775188544443],[84.20155895440551,23.02144222919072],[84.20051078392339,23.00576301323132],[84.21631648242882,22.99003046888003],[84.21926629819129,22.97881936109767],[84.24215229024537,22.98349132115376],[84.25287747658078,22.97288539904202],[84.27688749714505,22.99307336278604],[84.27856073294141,22.98693585112757],[84.2737557924642,22.98389506274699],[84.28328666411028,22.96401064156503],[84.310882293003,22.96928758786447],[84.32880213757787,22.98285792115118],[84.34432299909153,22.97703897351715],[84.35113171881163,22.9795677402642],[84.36623774612048,22.97548885672031],[84.37352216333291,22.97940670864763],[84.37819638917337,22.97529556011814],[84.38442694993378,22.96262768074338],[84.38253056359036,22.95435771490315],[84.39598008363737,22.93920945985652],[84.39312265350297,22.91989936650149],[84.3761974729016,22.90735497720058],[84.37648803816741,22.90188722426639],[84.38374470086525,22.89687681918249],[84.38130036503502,22.87813349237374],[84.3735120634957,22.87298774664905],[84.37204780576799,22.86501037408769],[84.36039735458884,22.86135616049322],[84.3528299213882,22.86574173430483],[84.34445858272314,22.8598415312741],[84.33577077487554,22.86217152832349],[84.32832809481185,22.85507746216192],[84.32374360241741,22.84858632040939],[84.32244793325448,22.83831070142061],[84.32625283628637,22.83759871262456],[84.31594242799619,22.80104784645898],[84.29964983124651,22.79605087562365],[84.29143066712385,22.7821571678421],[84.29181590186816,22.77341009161502],[84.28637155664245,22.76347776815414],[84.27628517318983,22.7691428148782],[84.2603151764053,22.76740364554717],[84.23151094097034,22.74048703340649],[84.23345639530437,22.6989515487203],[84.23881104040059,22.69158891057193],[84.22292964437263,22.66865409069952],[84.19893731196825,22.66567231296148],[84.18837324001608,22.65472671550715],[84.16332057798078,22.64531584084072],[84.15321329422437,22.63682688869809],[84.11227167412481,22.64000558354845],[84.09497687873868,22.63492984611616],[84.08417452848651,22.6381931392886],[84.05404413518517,22.59783314649927],[84.02449142389099,22.59150843066721],[84.02379807934398,22.58499160516632],[84.00931117486302,22.57255555637883],[84.00782253549977,22.55179561595119],[84.00290420376228,22.54555101868506],[84.01229491552623,22.52773416530722],[84.00903435823618,22.52565270762311],[83.99812506046098,22.53443588049414],[83.99542232011095,22.52847034985771],[83.98116654215993,22.52186884516087],[83.98078378464649,22.51557122575239],[83.9746761929942,22.51193558345467],[83.9801544839897,22.5023113005409],[84.01813840999287,22.48939655575166],[84.02675917778635,22.47567283377334],[84.04745373152633,22.46985190841045],[84.04736209030877,22.43866047989324],[84.03065631988056,22.42737359539473],[84.03056611300065,22.4212380873609],[84.01342439698702,22.39826429829716],[84.00592517368385,22.38169402184315],[84.01044089892818,22.37226125333836],[84.00516409120065,22.37433833348727],[83.98324166810701,22.36765930089763],[83.9706873334429,22.35895663033714],[83.95591672033032,22.36179735030743],[83.93335673230173,22.35401917372581],[83.92285138373063,22.35833055074271],[83.90652327710774,22.3513070456679],[83.9010546101793,22.33919260072853],[83.88928681036305,22.33624856273146],[83.87928849980435,22.33519902600868],[83.86470608105847,22.34320740672385],[83.85428420000004,22.33760169000248],[83.85022723668078,22.32521276267699],[83.83056569080765,22.32318672382845],[83.82272792133642,22.31337467475276],[83.82651089930053,22.29301434440561],[83.8023467267423,22.28979835524006],[83.79468554214881,22.28589822276537],[83.79136666378638,22.27595748000362],[83.77895239870263,22.27324054662421],[83.77583931613465,22.25811840876197],[83.759690898522,22.25116033950727],[83.75742816343252,22.24025157965843],[83.7130479709725,22.24274419005602],[83.70393741228263,22.24674592865925],[83.66575588617822,22.23275581654191],[83.65530152791682,22.22006212116759],[83.64950185369403,22.22335914906363],[83.62724609862201,22.20379955855674],[83.61331652723669,22.17771790615078],[83.60921812234054,22.15727106133421],[83.56178180747618,22.09868224147495],[83.60645938468973,22.06677671690552],[83.60182039169563,22.05911387677206],[83.5859549993503,22.04866241908072],[83.58178265603813,22.05458159861317],[83.55061105935047,22.05327275374407],[83.54781408905218,22.05914696303459],[83.53696263953302,22.04453332621053],[83.53691912713379,22.02732177807858],[83.5543072727134,22.00765151147713],[83.54332414499805,21.9937120648627],[83.53784309578874,21.96944301251617],[83.56169973780707,21.94798043272022],[83.55681227611882,21.93625984308093],[83.57285948491491,21.93273379176057],[83.59137439677879,21.92917775850392],[83.60597602542592,21.91426986881865],[83.59867656264322,21.9049766210276],[83.58620776408546,21.90225683547118],[83.58712442725697,21.89423892650308],[83.57786071751822,21.88891890824228],[83.58078640011232,21.88329406396267],[83.57428137975964,21.87478541681183],[83.59093510237307,21.85114337787943],[83.57808098136732,21.83744596463957],[83.57880847385674,21.83234820942469],[83.55162394733276,21.84072087365386],[83.53213758105777,21.83142533453001],[83.53097958491487,21.82637688138824],[83.54004469910976,21.82201608354269],[83.53961157520695,21.79891729996633],[83.5224783324681,21.79945695487637],[83.4924492862235,21.81831295501999],[83.4832965354324,21.79404830997213],[83.46925536554696,21.78747798860478],[83.48189875889223,21.76599361607586],[83.47597000192867,21.75243185797317],[83.48958011694833,21.74494633569175],[83.48526877109593,21.74506246723347],[83.48134869398108,21.7313685478698],[83.46115484162965,21.70922746891878],[83.45943912011636,21.69861591406162],[83.45123239370383,21.69543923799261],[83.43161816390909,21.69981209933964],[83.41878035387572,21.68059627536443],[83.4309789862217,21.67454234460442],[83.44715711285654,21.65799396794502],[83.48657720239024,21.64420087904862],[83.49200478289514,21.63776460864644],[83.4890778029205,21.63072294412813],[83.47356072284019,21.63256423684484],[83.46817550754453,21.61306867106757],[83.46031116920744,21.60791294223504],[83.45227077326166,21.61283848327041],[83.45236093800052,21.622574810046],[83.44394758140237,21.62411666576729],[83.44330533991541,21.63511634493711],[83.45070522419934,21.650744258446],[83.44243537911807,21.65544148777794],[83.42769933547504,21.64361019417925],[83.41481454564558,21.64075660349376],[83.3922634903762,21.62717744026911],[83.38953406945542,21.61780826550598],[83.38284455562173,21.62022583044909],[83.38012123898096,21.60807477626129],[83.36969286698219,21.60038621642903],[83.36777065267212,21.58846940028681],[83.3652909984943,21.57589737561944],[83.37337762164117,21.55856585851405],[83.33837747546413,21.49906466820599],[83.34721946775515,21.48841663437773],[83.34660260842766,21.47086829137694],[83.35421523593554,21.44821496540494],[83.37259908484361,21.44325869393454],[83.37581991562145,21.42812141659859],[83.39894130870026,21.40526174147456],[83.40043757815047,21.37497770059173],[83.39684280157988,21.36717566462681],[83.40797251663075,21.3611528403065],[83.40715027145752,21.35198629239627],[83.39158778267945,21.34255885832239],[83.37918505354273,21.34440987319324],[83.32274083397219,21.36225503467681],[83.31136669112085,21.37076505424455],[83.28378197602838,21.38015643008967],[83.26878535257056,21.37841789639714],[83.27401980129444,21.37720044342154],[83.27440870398063,21.36356231527428],[83.26868763285144,21.34579146625747],[83.25808391698514,21.33668112728437],[83.25742822038816,21.33357646082762],[83.26636770319496,21.33075251772192],[83.25722116107745,21.3203509393697],[83.26204961116086,21.30746064223373],[83.27618645826942,21.30211267777515],[83.2784369662714,21.28914722852052],[83.27074727108038,21.27232803063779],[83.26717563855264,21.27760286961252],[83.2499678616521,21.28213124584373],[83.2362652789379,21.26952838076069],[83.22961235799285,21.2721661479241],[83.22203834261053,21.2660009731241],[83.21733062365085,21.25472177041709],[83.2223790719797,21.22886511691906],[83.21835909635982,21.22790864241904],[83.21711536275726,21.21381379403363],[83.21025597141437,21.20463387734075],[83.21447104781909,21.19488392917534],[83.20282224777965,21.17726407695829],[83.20429653232706,21.16574701589998],[83.19829160429721,21.16362139363169],[83.19806902832035,21.14557196647753],[83.1916544385525,21.13868822144951],[83.17687024553787,21.13555932078685],[83.16666460650043,21.13835987280436],[83.131590035243,21.10580880656883],[83.11262181870099,21.11280679379546],[83.07785586881074,21.11201367060499],[83.05244999512612,21.12615488332009],[83.04542619720714,21.12390847195685],[83.03391921012636,21.13199449696635],[83.03496127405039,21.13671162088969],[83.02332308276428,21.1366326026888],[83.0160880243307,21.1464477261642],[83.00425154081336,21.13684403450366],[82.99050240330114,21.139683821829],[82.98600136212343,21.15119531196325],[82.99345466111367,21.16191751329295],[83.00376078766342,21.16678965749752],[83.00130756604337,21.17052527919227],[82.98053290780472,21.17023208157511],[82.98852294261151,21.18279127709443],[82.97546417256942,21.18217272429372],[82.9655833782437,21.17545576422297],[82.9650637732456,21.19327815228998],[82.9441488634828,21.17814270409975],[82.94795571425225,21.16203417364069],[82.94010810314506,21.16101391032387],[82.93769238633685,21.16992343722213],[82.93285162492015,21.16312918260026],[82.91506884017164,21.16198491810744],[82.90271676205309,21.16718187097769],[82.89726680847544,21.16211060839183],[82.88218263086809,21.14844317613667],[82.87648443533685,21.16373054067474],[82.8716228140225,21.15753480286534],[82.8669746346251,21.16286794232278],[82.85228298080823,21.15978013304284],[82.85112185165742,21.16870180908799],[82.82851540365884,21.16554354652034],[82.80043412351812,21.15601925798427],[82.79395010930325,21.1425661596082],[82.76358981540523,21.16413227366928],[82.7387574468241,21.16469561622006],[82.72136824603429,21.16640387274985],[82.71900909354163,21.15892846560449],[82.7011153019489,21.15763521187546],[82.69299675892924,21.16576444433003],[82.66300582993114,21.15483866521674],[82.64104966405935,21.15489243966904],[82.6372879456663,21.1443627676373],[82.6527468821247,21.12872998584857],[82.64000441254902,21.11932949006303],[82.641428499795,21.11149430444336],[82.64942125260784,21.10672896930359],[82.6364166540024,21.09228339705455],[82.62923178099132,21.07954445708041],[82.61502898720518,21.07877525767469],[82.61088125864302,21.07419695374815],[82.62815879115477,21.0383857462028],[82.61326225363561,21.02283604366068],[82.61130475533639,21.01295026529773],[82.57283365633859,20.97456478362775],[82.5595302955074,20.94840065233487],[82.54159916046302,20.93602058974426],[82.52798569197806,20.93478814184531],[82.51787863953223,20.922557064902],[82.50425745303747,20.91951960705236],[82.48768956492071,20.90802107733252],[82.49105691326832,20.88064638141556],[82.4866709587,20.86166772135588],[82.48107017358527,20.85132537672012],[82.4653739035785,20.84297483218391],[82.46877573195142,20.83519551424337],[82.46443462827291,20.82904762373958],[82.45468666162667,20.82757936488178],[82.43932823816345,20.83565589711235],[82.4199434689138,20.83158382459817],[82.4100893194003,20.84230812133821],[82.41285812469799,20.85088333024666],[82.40543928429425,20.87020899786285],[82.39555585809357,20.87004792655669],[82.38966540711053,20.87533267354737],[82.37590404207403,20.8679943054318],[82.3645974799822,20.87068959539857],[82.35946573057798,20.87382355522754],[82.36374616034372,20.88850616047715],[82.35118459870944,20.88976053914268],[82.346146580278,20.87396174015414],[82.33933011163515,20.82578710998905],[82.34609846528498,20.79765339469261],[82.3417054333895,20.76777765549133],[82.34775261618437,20.75113866184776],[82.35354061278335,20.7359396025146],[82.3455493377653,20.73161146110652],[82.35399938826959,20.71968633067228],[82.35040104014931,20.70635818838455],[82.36033434805493,20.68357513233236],[82.36703874310443,20.680211327999],[82.37380535164502,20.66742178952816],[82.36846481121259,20.64924794033806],[82.37648700304051,20.6324298942083],[82.36450434069843,20.62220461176675],[82.36224975862348,20.60992872697722],[82.34712319301211,20.60256171405104],[82.3440741336461,20.59290498401219],[82.35062800117264,20.58129043316803],[82.34334002325518,20.57154256831982],[82.33350518737271,20.56872213567086],[82.33222125064614,20.56192480988133],[82.34859979131099,20.54668626089179],[82.35763448533724,20.52934428659172],[82.3896253989021,20.51769345534664],[82.38832899487292,20.49538019226788],[82.39201848312392,20.47871043120086],[82.39777309671459,20.4730725969347],[82.39604607497877,20.45959184039783],[82.40854024199196,20.46326149279414],[82.41596766961649,20.4816687112816],[82.42363342912637,20.47514528548906],[82.42704354446357,20.46907964197264],[82.42571848748545,20.44535066257703],[82.43396988208434,20.44568672971582],[82.4378505228049,20.43441322315751],[82.42964561166593,20.42788934214889],[82.43195311680357,20.41688961869333],[82.41659502648417,20.4076732701627],[82.42115961406802,20.39287158614017],[82.4003628957119,20.34160118454985],[82.40885907038901,20.32779810718674],[82.4210243160158,20.32413293410773],[82.4307547498677,20.31404985662545],[82.42996941001988,20.30100667896085],[82.43779928641202,20.29443259784046],[82.43285821959346,20.28183271626279],[82.41233010509669,20.26706106558397],[82.41137097803856,20.26013333608201],[82.42231335804512,20.24799005175148],[82.41061190960497,20.24266319971678],[82.41506236307963,20.22683253482455],[82.42245831349051,20.22084122323651],[82.42060145194533,20.20493993884674],[82.4134527120817,20.19937202216221],[82.41156802712861,20.18150966104271],[82.38998782891953,20.16371863751095],[82.39412858176017,20.1526475057416],[82.38578235867223,20.14646127142358],[82.39765457950985,20.12379655744479],[82.40141722647962,20.09609123496808],[82.40147757205193,20.08104255663803],[82.3958199574321,20.06899763420931],[82.39827538718605,20.05819847130585],[82.44799123709433,20.04068794324109],[82.46065671565991,20.04192007071478],[82.46999633148613,20.03593989656157],[82.47855275222605,20.03819780747615],[82.49371533755311,20.02439099307755],[82.50810214799957,20.01863187248119],[82.55045033840894,20.01803144418956],[82.58326736726909,20.00320532827685],[82.59533818397892,19.99182810980711],[82.62047440210414,19.9924368571943],[82.63296123236945,20.0042470758516],[82.64167309284976,20.00657186058932],[82.71215434924696,19.99743273350055],[82.7180496210228,19.98953628319061],[82.71456277122232,19.95868398580615],[82.71852947990361,19.95057420618439],[82.70746923921864,19.90162932788547],[82.71400737201758,19.87780328177361],[82.7243512108471,19.87581560334628],[82.71790545081956,19.85312423774321],[82.71130640767423,19.85086894068151],[82.71157370619237,19.84023257153518],[82.70531800191252,19.83298929484375],[82.69601190509172,19.830665756893],[82.65149294477044,19.8322900490003],[82.6468844737025,19.81884399978013],[82.63674646218386,19.81318378720075],[82.62653304615657,19.79337183105669],[82.60359431673896,19.78823713347584],[82.60259532539654,19.78171402748834],[82.59445555450316,19.77554004862019],[82.58324148955921,19.77860726869182],[82.58160929819138,19.78298036677585],[82.58446184374033,19.80262087917334],[82.57582647424253,19.80793787517201],[82.5792508908306,19.83021056599603],[82.57580378712498,19.82907876403958],[82.57547507859572,19.83390414845312],[82.58391263269216,19.84398600225395],[82.58826801599356,19.84343133516378],[82.58720796158957,19.84858476799041],[82.60341071169356,19.86691661607575],[82.59636137618942,19.87307875505607],[82.5830124873009,19.86962239595389],[82.57211887550213,19.87796474432107],[82.56117902644607,19.87450863785291],[82.55616686827598,19.88087604039519],[82.54872944904403,19.87578400809425],[82.53499142245795,19.88703795339512],[82.53122982500302,19.87857195632761],[82.51929161277549,19.89095754738918],[82.50494228361312,19.89035204708844],[82.50093762066885,19.90296312450653],[82.48279452851986,19.90705596910121],[82.46451349165883,19.90047685393898],[82.44604150171416,19.90920924478975],[82.43648130121018,19.90406034776308],[82.41817753037336,19.9029077636365],[82.39451880428967,19.88749833113822],[82.375644386514,19.86004836709681],[82.36085461164257,19.86297250274691],[82.36491418165437,19.85182899777284],[82.3440428210622,19.83586923252961],[82.33243393452369,19.84360380345336],[82.32510929789655,19.8624262883741],[82.30241940843827,19.88990599767189],[82.3005505423038,19.90492182766361],[82.27811010597127,19.94371932339133],[82.26879570234237,19.97643109676042],[82.23824561784917,20.00255585095295],[82.2171823340373,19.9969805712035],[82.21053347986566,19.9861661242272],[82.18496035568205,19.98361051802701],[82.17151161770936,20.0056133522767],[82.16183082963865,20.01013320691408],[82.15452243703643,20.00780996558359],[82.13721313140766,20.01948042797319],[82.12471887279332,20.01644118499801],[82.10704276291689,20.02707344943999],[82.10207647952784,20.04022543679916],[82.08965848753724,20.03840206527119],[82.0857751044549,20.05057188760086],[82.06485738958952,20.05666557599246],[82.05841929846022,20.04210173650182],[82.03804458389914,20.02966271478762],[82.03995088194529,20.02264054289385],[82.0329709291165,20.01561827058286],[82.02108644561115,20.02337263338111],[82.01752475494449,20.04831341180367],[82.01176391976952,20.054019210305],[81.99239993024045,20.0571029186477],[81.97935921112723,20.08059521281684],[81.94713130604599,20.10714775173363],[81.92766217829104,20.09185413394285],[81.8952572214937,20.04822394422046],[81.87935065521158,20.05081628600876],[81.8659828617103,20.02831137975443],[81.8549681951246,19.97168217513089],[81.84522846269753,19.95174942401044],[81.85712304338223,19.94724798505306],[81.85358314281346,19.91834157960004],[81.86964780021522,19.90231743911254],[81.88863932376707,19.8927185736682],[81.96859139400249,19.85967296832563],[81.96558289564983,19.83644966695562],[81.98629509495096,19.80073484949129],[81.99574456232494,19.79634918708841],[82.00940845006006,19.80417181029454],[82.04865661989183,19.79669886089344],[82.0524590587733,19.79243191380468],[82.05947311545971,19.79644921888788],[82.06468895147066,19.78998884231174],[82.06077191755399,19.76571536391657],[82.06447233390563,19.7588320286554],[82.05098311809788,19.74734081872363],[82.05046202387956,19.71692062395491],[82.04437632263429,19.70883525805791],[82.05282868434291,19.67613401083332],[82.05556670828926,19.66591477961629],[82.05177709127537,19.65942900712595],[82.05593268079518,19.65416001759705],[82.05226409832649,19.64643638869687],[82.05924624017516,19.62882646214153],[82.05070967819033,19.61663335407687],[82.05159337604196,19.60807824961741],[82.04452451824083,19.60553472989341],[82.0397757001009,19.59700546458869],[82.0491016917233,19.57775557894804],[82.04537993078927,19.55961805565234],[82.05054307960218,19.5486452263278],[82.04773217247246,19.5326115705511],[82.0372672989154,19.52740519041321],[82.03154668702395,19.50777631158254],[82.06593532066842,19.51068387296308],[82.0759250377122,19.52383253878185],[82.09987986046868,19.51681929972366],[82.09780227665323,19.49916325416259],[82.10812363015732,19.49446144777308],[82.10272995736553,19.46624694574636],[82.11331899601596,19.46069060958132],[82.11339456903424,19.44853702834065],[82.12591369970959,19.42934880651768],[82.16844029824419,19.43686682835396],[82.17796178871698,19.4367432805692],[82.18960302461348,19.4269407381998],[82.189298620421,19.41539311224336],[82.18217360894259,19.4096102382214],[82.1842180874663,19.4006406656721],[82.17848931661892,19.37885432765623],[82.17177626077697,19.37267353813768],[82.15326145010798,19.37726141489583],[82.14760917759588,19.37212194633789],[82.14870774835506,19.35285723772209],[82.17883280840786,19.34366034833744],[82.17852743716035,19.33958562615743],[82.18660554360513,19.33700672886831],[82.18960362696427,19.32701279337251],[82.19465458892712,19.32633018187213],[82.18133449107499,19.32378946944115],[82.1765599525865,19.29944203065991],[82.16589498933098,19.28797011320275],[82.15853412288075,19.2673782340416],[82.15812276628593,19.22728470436816],[82.16781347617216,19.2140843889737],[82.17662842249595,19.21424063299013],[82.17886746013384,19.19194608403281],[82.17527207597108,19.18145596276116],[82.18195352060732,19.17402370352786],[82.17630943222358,19.17124855813153],[82.18596613030438,19.16643848852126],[82.1776437124523,19.15559195009355],[82.17450145390283,19.16298186232304],[82.16993177597487,19.16033838080353],[82.180794710599,19.15134422785017],[82.17183170434882,19.1502198242444],[82.17001561791994,19.14462725634873],[82.17570710553294,19.13849585677163],[82.1664845468561,19.1357223494805],[82.17048944433209,19.12042273750089],[82.17695812809477,19.11851595975881],[82.18251890801078,19.13173518542055],[82.19656315134273,19.12159444392436],[82.20509945500987,19.12428205177521],[82.20874626965498,19.12004126101464],[82.2030319400059,19.10805132223612],[82.20725092956316,19.10248330878043],[82.20492360493698,19.09702076177065],[82.21401737834097,19.099687488636],[82.21897498070703,19.09522207284723],[82.20453536823487,19.07524469389987],[82.2056334419976,19.06020981874708],[82.23254727947646,19.01812408956907],[82.2459517088229,18.91920973740382],[82.23622465038638,18.91452175269413],[82.21841278987384,18.92267273611545],[82.1761974964501,18.90266329192713],[82.17643313494364,18.8866764788312],[82.16055090106954,18.8786858317738],[82.16746277330176,18.87323135629262],[82.1599794427279,18.86138580259675],[82.16748592304351,18.85227483443985],[82.16899599304392,18.83633018265032],[82.1603152644307,18.81989018372935],[82.16626538242421,18.81451410594301],[82.15671534034195,18.80503923775152],[82.16550287138833,18.80087159415287],[82.1600787992946,18.79544388567205],[82.1607578989438,18.78928576832022],[82.1413061765334,18.77857608429136],[82.13358542617895,18.78061918817351],[82.1329598026987,18.76547906147757],[82.11948122528173,18.76993285130938],[82.09149956257967,18.76563525941901],[82.09087834891513,18.74106026070228],[82.08456416329761,18.7206310317965],[82.0718466580982,18.72695042257208],[82.06569667650481,18.72718033525004],[82.06190724681449,18.71956053909088],[82.05488793928878,18.72716058165958],[82.03673141766939,18.72741037978898],[81.99826598694845,18.70730901504058],[81.96772719436247,18.69643954020734],[81.96016187239627,18.6885631214774],[81.96880591986927,18.67365598805699],[81.95391497104514,18.66338313585948],[81.94871256247136,18.64359644556539],[81.92141746665374,18.64283540020747],[81.90040152535657,18.66123130428006],[81.8933529930682,18.65698994758936],[81.897640403185,18.65462825728883],[81.89387988019533,18.64180422767643],[81.89851721989032,18.63577193370787],[81.89452006907624,18.62924963665862],[81.90872462385094,18.62821791763888],[81.92585796927551,18.62061765717119],[81.94138971309154,18.60188000082714],[81.96288674246885,18.5946787973872],[81.96316820842912,18.59000600481553],[81.95255819080928,18.5828944793466],[81.94951149394076,18.57210768454817],[81.93478389388393,18.56613910268222],[81.92649962429338,18.56645966298806],[81.92045790323796,18.57253960742473],[81.91044925042192,18.57061885442053],[81.90560461542744,18.56410729185419],[81.90848805210189,18.553041591637],[81.90127933091648,18.5484010194559],[81.90877102133187,18.53812749268915],[81.89728265183689,18.53501482544678],[81.88931136403654,18.53848785383473],[81.87954661330109,18.52522073707223],[81.86805849199283,18.52490240501403],[81.85665377669986,18.5083556554704],[81.8572484084208,18.4927080362516],[81.76908031874785,18.41816538811584],[81.75027742794047,18.35259992682095],[81.65930028259183,18.34647831762527],[81.64967643982226,18.33602231225108],[81.6620395280386,18.32111901219841],[81.65051974511887,18.32140386499275],[81.61688269784281,18.30717450956103],[81.59796942991747,18.30906458119965],[81.56450914953578,18.27510637122324],[81.53583259915229,18.26857617654304],[81.52561187947907,18.2578432508335],[81.53046473154238,18.24048263967437],[81.51520815437678,18.21274412696074],[81.50696210151744,18.18663790040595],[81.52455370561336,18.16439172635278],[81.52557582837133,18.15292758045906],[81.51810800462141,18.14828864572536],[81.5129593521559,18.13750582634798],[81.51338697255807,18.10004767111152],[81.48021823411803,18.05014514597792],[81.48304917615675,18.02683979749566],[81.47751824928571,17.98960695129873],[81.48313281810796,17.97718776717449],[81.47184281868356,17.96011051086224],[81.45950059992904,17.95277299102325],[81.44881284846569,17.93128778248679],[81.4527802036973,17.90699996171045],[81.44370309873071,17.88451406226554],[81.43467088824261,17.88088296466548],[81.40752127866949,17.89608231079926],[81.39949586072187,17.89207504481333],[81.3943322381998,17.86998972722793],[81.4038137098786,17.85273793436132],[81.38931300762079,17.8301026234572],[81.39179927812798,17.81545081820655],[81.39229201275229,17.79416584048052],[81.37707708677397,17.80456167124315],[81.35403626488991,17.81227973984036],[81.26611706380055,17.80948679627081],[81.24836759209661,17.81667646655187],[81.23929207324502,17.82607047233382],[81.21560371772557,17.83455755497444],[81.1993036832602,17.84698248421233],[81.16613146494743,17.85765144737621],[81.12791452346501,17.82704805161472],[81.09765745923563,17.81242072646359],[81.07326118759906,17.78649919508069],[81.04363380686476,17.78279225417794],[81.00832411562578,17.7981255372273],[80.99644090134802,17.84842970361085],[80.99415704279919,17.88063076930756],[80.99840068458465,17.91747624032584],[80.98767851228271,17.9442127973983],[80.97962091365949,18.00331548306189],[80.96425213563187,18.03818645697956],[80.96904408471593,18.04647407742593],[80.9492502655505,18.08290767376657],[80.95550560710882,18.12910550349893],[80.97846084097282,18.15443477266862],[80.97902436345564,18.17545820860283],[80.95765075418775,18.17359288229947],[80.95161469037369,18.16370370947249],[80.91416386914781,18.1412144193982],[80.89107156837615,18.13602537671471],[80.86665905741012,18.13696704617965],[80.86015188070523,18.1479098371085],[80.85853525349917,18.18649882527443],[80.8529031297739,18.20204464608099],[80.87096131782702,18.20483846679829],[80.87260372662578,18.21062033620975],[80.86593584245314,18.23017297548097],[80.84342410981492,18.2324826904995],[80.8367210969416,18.23896048609709],[80.82358667457821,18.23612037927643],[80.82406151066077,18.19108215171809],[80.8174622350966,18.18914866211538],[80.7991049080028,18.16821483051759],[80.74407024648353,18.17104013719587],[80.73702823242212,18.17678674144129],[80.73713495776242,18.22206038697621],[80.79264975557756,18.24949529391098],[80.79385701956694,18.25948246915391],[80.78024936628034,18.266116800545],[80.76908823960196,18.28767222412143],[80.75980395776972,18.2894409341435],[80.7581495086163,18.3009936351937],[80.74875464487657,18.30899294126696],[80.74763267569256,18.33000729115972],[80.73152783265607,18.35479630127439],[80.72686079429869,18.36933771837246],[80.72942706082118,18.37881862094897],[80.71959135828234,18.39112952817984],[80.73195666508158,18.40101991583945],[80.73483434690141,18.41286439283975],[80.72289008201136,18.41515980278969],[80.71829253399108,18.40973734400222],[80.69895877754723,18.42143612080002],[80.69831287976038,18.43766685927022],[80.70541195990148,18.43968870472292],[80.70162398121347,18.44458536157202],[80.68800742280646,18.44739878100564],[80.68614754349301,18.45824436882792],[80.65528302640956,18.47589939013104],[80.63704481853173,18.50476370347623],[80.64090481577398,18.51133505614867],[80.63763977705425,18.52255117124498],[80.61841963952081,18.52759089182199],[80.599790606836,18.55306428114405],[80.57150171458386,18.56464565110594],[80.55640306584999,18.57978595473943],[80.53449926659272,18.58837382600224],[80.51472612742752,18.61938175279042],[80.50158678067264,18.62156444548666],[80.48826651393864,18.63112749528511],[80.4655358575617,18.62398216355888],[80.45612329185336,18.62939692560462],[80.42761202055718,18.61291193741123],[80.42240267933043,18.61515575381657],[80.41999837896105,18.61043380776738],[80.39584509338121,18.60496568326322],[80.38844869617685,18.59669351178903],[80.37567152897267,18.61070514050146],[80.36755608985074,18.60823369255565],[80.35563037151852,18.59467222835156],[80.34464484033367,18.59723527513029],[80.33420323745378,18.61341870458802],[80.32748459699935,18.63541390685258],[80.31867301872815,18.64218249396946],[80.30179125443658,18.69032419386305],[80.28360572400307,18.71754544728909],[80.27171125195443,18.72333573904528],[80.2445608886998,18.75613343117559],[80.24551490718339,18.76191116516014],[80.25680700129561,18.76994254814748],[80.2770835063785,18.76671491549289],[80.28837443329626,18.77369315297038],[80.2995664812866,18.79417688691954],[80.32286800792004,18.79890662452976],[80.35018693525409,18.81491746779928],[80.3541157897694,18.82636880041417],[80.34924619365998,18.8476192625503],[80.32696228819304,18.87996451275093],[80.27025471693986,18.93986945069837],[80.27348238210408,18.99317279817469],[80.30494225171817,19.02660363475262],[80.29669771575911,19.04825932827096],[80.32949331246489,19.07025655778801],[80.32795632348368,19.0952534547036],[80.33945891984017,19.10026486835917],[80.3273491317902,19.13508729220539],[80.33269110263055,19.14518749928551],[80.34682270762946,19.15154575804344],[80.34820558887584,19.16054661841032],[80.38665812932935,19.17989987348931],[80.39383408257214,19.18808669251624],[80.39308520435723,19.19965493142916],[80.38374755919749,19.21508063114331],[80.39192119422717,19.24285607576833],[80.43038108393038,19.25433930980457],[80.44630032524188,19.26468165165669],[80.45462254091619,19.27501112387685],[80.47578447436061,19.32607952935784],[80.4862085074321,19.3411155996156],[80.51987642096445,19.34744673785252],[80.54418033827262,19.38385987642967],[80.56196499334163,19.39871108628397],[80.57412484862913,19.40230017831065],[80.58051818860041,19.39830081766834],[80.59171345973384,19.37576482435987],[80.58825540986889,19.36987937522975],[80.58991546993632,19.35182340092245],[80.60772057869617,19.32573885186729],[80.61228495011467,19.30969567226222],[80.63106846719997,19.30705330060184],[80.65409090932508,19.32295965240958],[80.68037696196974,19.33014095579733],[80.69326513118418,19.31566945660015],[80.68963493247955,19.28719012472184],[80.70197805979684,19.2820242284535],[80.75585872651084,19.28919671538388],[80.77518926895165,19.31463780915008],[80.79012555192568,19.32385312920924],[80.80505405006456,19.32685779369425],[80.81052410588991,19.33656741184274],[80.83277630800772,19.34935336316913],[80.84646068427551,19.3556939020927],[80.8525716830925,19.36407217516036],[80.85014594241566,19.36920554734956],[80.81689366494376,19.3845545450513],[80.81294939569015,19.40546653644902],[80.80419142584319,19.41174376263242],[80.80422911069435,19.41943721732231],[80.79551781912693,19.43140086637707],[80.81177393908007,19.43277073225163],[80.84206676688281,19.44678851134873],[80.86434954621565,19.44366913859284],[80.8811460773483,19.45085986855907],[80.89453417412568,19.46792135557478],[80.89818062771494,19.48064458655208],[80.8929485205123,19.50226229190988],[80.89489000599104,19.51962017285487],[80.88398871835288,19.5260259845645],[80.87342689550252,19.5187607206772],[80.85604892696763,19.52309318851948],[80.84321579430554,19.53948565155687],[80.83433082251814,19.56683759224219],[80.81601415801691,19.57098148343462],[80.79146197552348,19.56081093153237],[80.77536622198862,19.56246690935346],[80.76712007428027,19.57498381674292],[80.76775631362968,19.58861939282965],[80.71919049236314,19.61542044973768],[80.66583966600224,19.61147250863871],[80.66266777388665,19.62278513389994],[80.67321784105263,19.69289135584954],[80.67148190750396,19.70149735737462],[80.6500589894942,19.71150853899464],[80.64033625196042,19.72511340523291],[80.62716184441082,19.72551259240536],[80.61067251997585,19.73826984074047],[80.58623430219909,19.74118181918503],[80.57121937322701,19.75934947675149],[80.55243483260442,19.76571457491681],[80.5426088687271,19.77971503933178],[80.54747691409855,19.79464038583706],[80.54630159853583,19.81808482455677],[80.5205738140595,19.83162982165998],[80.48108169247732,19.82749526302087],[80.4693019159144,19.81067442796356],[80.47575594776934,19.80367436498318],[80.48511093097237,19.8020056622373],[80.49012390535164,19.78991239363622],[80.48890535761898,19.76990310279038],[80.46441159943518,19.79564945571452],[80.44954456830008,19.78973264885908],[80.42476782689727,19.79891847766795],[80.40156891319866,19.79616009240332],[80.40762782525864,19.80532217486831],[80.40264607391568,19.81636228761324],[80.4208799037135,19.81355557449397],[80.43003094089143,19.80716610882488],[80.4402058881113,19.81006892226677],[80.46879281684656,19.82647677688983],[80.4725575368761,19.8364766328818],[80.47896152100205,19.83970566983228],[80.48591937441287,19.86314082840887],[80.50572665975174,19.8704882758589],[80.49990069288891,19.89026571180931],[80.49131097445272,19.90190175474138],[80.468339833896,19.90734999571379],[80.45055528783658,19.89630219088937],[80.41423169171452,19.90714060466391],[80.40800907416421,19.91278468129501],[80.41266110523765,19.92408775657775],[80.41138901077352,19.93828012757212],[80.43179551573367,19.94136159892657],[80.45243075116949,19.95746443315712],[80.46597215354375,19.94824174800166],[80.47346079636684,19.95067722660619],[80.47997741382312,19.93514321227573],[80.48870549896385,19.93054158742985],[80.50463185141875,19.92837270563227],[80.52307858455704,19.93350812055497],[80.52989791539072,19.93948153625014],[80.53155907947219,19.9485849083186],[80.53864915690085,19.95191038354823],[80.53737171542164,19.97354618429375],[80.54902911893448,19.98418589887086],[80.54983268605255,20.00068094707208],[80.5433225684325,20.01218656140211],[80.5508228662045,20.04149228647923],[80.54904626513182,20.0548094044949],[80.55666595830877,20.07063540960996],[80.543987619855,20.09546186500714],[80.5521114154147,20.11810958631352],[80.53038604519723,20.13186440736938],[80.51237532011437,20.13595438251454],[80.50534175981917,20.1445466245735],[80.48482145793389,20.14388098255501],[80.46047159850978,20.15086246457679],[80.45480397544016,20.14562504086205],[80.45552868200558,20.1380097830879],[80.43379548375378,20.13526660839009],[80.40203075567756,20.14705192869497],[80.38851306331203,20.16493644448125],[80.39653788384256,20.17366292953714],[80.40051211374453,20.18948617819319],[80.42108604779362,20.19614965896816],[80.42213044813253,20.206714224522],[80.40531774506422,20.21818185317558],[80.39494988346554,20.24357040449651],[80.42444452277037,20.25265305842926],[80.4520352683679,20.25825113541635],[80.46148616172154,20.26834683992194],[80.48167333993779,20.27522589394655],[80.49748459585388,20.27505270400263],[80.51870194424899,20.26613226132091],[80.5444029122095,20.29455444710834],[80.5494868375528,20.30897845309776],[80.58881727278977,20.31802542111364],[80.61046207105343,20.31861468810445],[80.62565907388151,20.33048346003159],[80.61502102320642,20.35157407463021],[80.61068986221164,20.37504251697317],[80.59423128060135,20.38553792578876],[80.59149338139397,20.3931550909747],[80.60027784977554,20.41808406174423],[80.6137297313702,20.43484536497108],[80.60199801969594,20.44879746419219],[80.61248858088571,20.46238453605206],[80.61917038006312,20.50499913302349],[80.6213821358558,20.53273642489234],[80.61544631485094,20.54987779023715],[80.62422713523915,20.5556362279964],[80.62666823667293,20.56375460903719],[80.62106183116474,20.57027127960987],[80.62572949970045,20.57791601394315],[80.61746016858228,20.58547949344126],[80.63185476153774,20.5982774925869],[80.61196745273838,20.60060361861175],[80.60057097993031,20.60903277668125],[80.5777695778572,20.60793245598268],[80.56420619011304,20.60365407927923],[80.55778367486742,20.59450164548853],[80.5384914244037,20.58484438720268],[80.52157856457163,20.58044320000461],[80.50441499997798,20.58311411281382],[80.5021338954293,20.5951924951709],[80.4809921057331,20.61851989838602],[80.48929461273131,20.63347153748886],[80.52102109787162,20.65719564552059],[80.54502073330514,20.66036600030384],[80.55893418785548,20.67078976100334],[80.57988978875267,20.67278244872743],[80.58720518304033,20.68221541898045],[80.58124740127292,20.69797344806282],[80.56498313389832,20.71097955252039],[80.55998725055252,20.72590942561337],[80.56279323948097,20.74696875378941],[80.55205025950491,20.76205278829412],[80.5521056371091,20.78081906979976],[80.54920078849696,20.79602036918251],[80.5610836900845,20.82283587129883],[80.55471512893745,20.84522630957573],[80.55576433718586,20.88945363375831],[80.54173324337833,20.92476300824767],[80.54600058178714,20.93481526651489],[80.51912141911882,20.9297869394656],[80.46336374551082,20.92970384533311],[80.4459708423202,20.96922126856465],[80.44362926723429,20.99448389800681],[80.42441261186543,21.00799512757611],[80.43907852338656,21.02753918817137],[80.44963039513472,21.03066618815597],[80.45238078404208,21.03899052209579],[80.4540524605085,21.05222798799043],[80.4471951126274,21.06388019974251],[80.4469515216475,21.07930618432696],[80.43913911204686,21.09664103608372],[80.44721769166016,21.11174205069053],[80.45690673936868,21.11514494614073],[80.44448647869386,21.12116944392599],[80.45647899218302,21.14402078212289],[80.4639880396297,21.17510864506068],[80.47818175205256,21.1704688512113],[80.50249972523311,21.18561638390736],[80.5141999228402,21.18231456830084],[80.52900318636567,21.20533596903267],[80.55719042764039,21.20109650045449],[80.5705443726539,21.20669418428584],[80.57981569712985,21.21908843141187],[80.6157403371612,21.22803839884947],[80.6251640979289,21.24189436130874],[80.64229595196484,21.2494341437007],[80.65119251053541,21.2780933099569],[80.65773324083804,21.28157710186618],[80.6622902243799,21.291578231115],[80.66915449235363,21.29081798765234],[80.67871535383895,21.29774134019343],[80.68163636396139,21.31212359075736],[80.66004295941563,21.33417967039108],[80.67140192592443,21.33860993519043],[80.6712490303549,21.34514179155628],[80.67762623591005,21.34866480583521],[80.6818981655888,21.3601746539998],[80.68028903609073,21.36502599534085],[80.6947216892955,21.38033975659723],[80.69984070750277,21.40435993169227],[80.70678154296448,21.41253145194719],[80.7067205612008,21.43304487912065],[80.7239457032032,21.44465119064913],[80.73480828361454,21.45964617549891],[80.73781342579635,21.47575497087293],[80.7336757595691,21.48354230831145],[80.72771334541576,21.49620072123976],[80.73286312151876,21.5005855269407],[80.73050538956176,21.51618257111829],[80.74031483585574,21.53941231453386],[80.71983326310772,21.55522255749863],[80.72901015267692,21.57234888439923],[80.72543929218894,21.57991580398693],[80.71536193822601,21.58451909397941],[80.71868123337187,21.58708975130706],[80.71700974529142,21.60250001423637],[80.72501264718208,21.60978564618305],[80.72363891218046,21.61393617544508],[80.73105433253261,21.61679666515677],[80.73177775730514,21.6262545536193],[80.72683440693933,21.64546170278139],[80.71879414096043,21.64583526230774],[80.71430108535714,21.66138306557899],[80.71913821482651,21.6672777424278],[80.71697442395035,21.67171615033446],[80.73407402921436,21.69434994792337],[80.73515659692109,21.70429445628356],[80.72579635622024,21.71285099997144],[80.73196807601869,21.71363018112167],[80.73343285162713,21.72787392719989],[80.73971038846913,21.73195557182834],[80.73874196865624,21.74011593368113],[80.74842228611183,21.75616784016983],[80.75603568477568,21.76218128473393],[80.77214705942875,21.75856280090732],[80.78580893360903,21.74869641147646],[80.78513818885806,21.73997489027931],[80.80683360869686,21.74768168022038],[80.82018283703464,21.74810204553226],[80.81695657040395,21.76164568081351],[80.82337843737785,21.77498887746409],[80.82792572652403,21.77612880316848],[80.8259960438625,21.78298232448332],[80.83183128261287,21.79407261610671],[80.83980983338424,21.8016862651715],[80.83739246809273,21.8093807575664],[80.8448977464802,21.82866387097771],[80.84255165534523,21.8336967481403],[80.83810133804293,21.83682650652211],[80.83917637585701,21.8478110127543],[80.85234293704649,21.85480592655404],[80.84257853720919,21.86538775162397],[80.85315999628871,21.87263201051034],[80.84267064892072,21.87607490138816],[80.84321977731283,21.88203676324222],[80.8325394928907,21.88909951972144],[80.83591842323102,21.90709311450317],[80.83208145146064,21.9077814176921],[80.84748374372215,21.93242134162222],[80.84138884909618,21.94099957382409],[80.84559897844636,21.94188099599144],[80.8427382696072,21.94616234948363],[80.82878610052454,21.94830527340915],[80.82536884385426,21.95847774638131],[80.83579695724363,21.95452681657882],[80.83815365775855,21.95791858495022],[80.85232726473332,21.95721242919931],[80.87576847058945,22.01107030433037],[80.8757838366901,22.03855944801935],[80.8857954953646,22.04965009090418],[80.88268647686483,22.05906026916568],[80.88899825978028,22.0571276990914],[80.89680293443604,22.06436970016322],[80.90792589133882,22.10959868320277],[80.92194296064955,22.11997738982941],[80.94756850823802,22.11829169066908],[80.95697077294956,22.11044475398981],[80.9718719328227,22.08237823390879],[80.97003284164845,22.05743532168065],[80.98052874503028,22.05473347283563],[80.9835273344287,22.04862528920745],[80.99438174135138,22.04926871289659],[80.99486924720497,22.05863371611983],[81.00409724213293,22.05964992247291],[81.0090284512372,22.07031680372649],[81.0016257834669,22.08420725293934],[81.01137460710044,22.09550199924825],[80.9904674189332,22.11358131935089],[80.98433330542072,22.11458271699951],[80.98095245407006,22.11024025376346],[80.9781340832811,22.12013096376349],[80.9948653725926,22.13304818437365],[81.02212471105035,22.13258963671856],[81.02219157428677,22.1572841731205],[81.0267916524188,22.16564963384678],[81.0167459572877,22.18603517312864],[81.02236664110396,22.18951921596749],[81.03074767578775,22.18736611851693],[81.03148679595972,22.20006338002661],[81.0195155483135,22.2213530488731],[81.02367747658586,22.22924877102945],[81.0379558250186,22.23394791059677],[81.04689102900406,22.24247171921834],[81.07232282977927,22.24842281399921],[81.07960808454403,22.23936262663533],[81.09176095082275,22.24941082624053],[81.10199118798161,22.27836974924067],[81.11836216738031,22.29064350038677],[81.1187586796432,22.30985219977131],[81.11349114798686,22.32434195193764],[81.1211357689126,22.34270019068808],[81.11324059982785,22.3528018046617],[81.10351746400315,22.38271138501778],[81.10785044001754,22.3987908207061],[81.1108076362135,22.4371996743997],[81.1258444439437,22.44860684939807],[81.15485098992583,22.45434852856843],[81.17213116439223,22.48768490943195],[81.19808066045853,22.48917337330759],[81.19932272775684,22.46284409323777],[81.20762799552504,22.45637407346002],[81.2321637006763,22.4519777664302],[81.2429971682347,22.45600961272568],[81.26227750284932,22.47223030715946],[81.26223307673136,22.49309714194661],[81.27330329539346,22.49295964816413],[81.28141711501202,22.50301074277309],[81.30737682635746,22.48180201668147],[81.31384130993948,22.48270379672714],[81.3152029688544,22.48754809448339],[81.32277452494738,22.48876982881534],[81.31829623216804,22.49379501733338],[81.31755707746133,22.51348958059683],[81.32321168978673,22.52353658596099],[81.33133170242337,22.52548538657634],[81.34053525075458,22.51944234752325],[81.35041765256305,22.51771046226532],[81.35437760011207,22.51121129325875],[81.37044470567024,22.51492715924119],[81.38224249444742,22.50979465153751],[81.38404864216308,22.48945741338455],[81.3913718714361,22.47764263391391],[81.38813315117883,22.45918635985729],[81.39687146670799,22.43992444521372],[81.42370888390852,22.44845767323384],[81.42879470860134,22.45670995156347],[81.42283174759073,22.4702463700304],[81.42783770233544,22.47967228381665],[81.43995518551937,22.48161879883999],[81.441286667992,22.47139282460851],[81.44747583708758,22.46572815895915],[81.45894447122096,22.4692359059716],[81.44688589600945,22.46938103416791],[81.45091896090852,22.47881182347111],[81.44637050973397,22.47618976355139],[81.44272363719939,22.47911790231235],[81.45121502210104,22.48647745264592],[81.44257869764095,22.49427157557088],[81.45195568502768,22.49593081338667],[81.45882664545593,22.48937735590964],[81.4631386792117,22.49304777612363],[81.479032433219,22.49166018869722],[81.48693486054836,22.49010824725085],[81.48808009261262,22.50065380106389],[81.49735721466591,22.51150281755879],[81.49702445470854,22.51978089161056],[81.50944368621279,22.52610068962945],[81.51839503868396,22.52004146400352],[81.52235276712008,22.53906604488471],[81.53559593222433,22.53714851957982],[81.54625980923011,22.52759889903454],[81.56989377383367,22.53238872124125],[81.56304029867087,22.53432322315826],[81.56276998495544,22.54442231979037],[81.56961803854881,22.55071411494844],[81.59144583102683,22.54547150024229],[81.59863481508349,22.53557731076169],[81.62272187437262,22.53863152673484],[81.62873360670865,22.54452955752596],[81.6242509352798,22.5558244808322],[81.62917549318435,22.56350825355569],[81.63492014771589,22.56526232880907],[81.63626147922548,22.56014193763134],[81.64255858838295,22.55967359210408],[81.65989639536652,22.56951659757554],[81.6551806414536,22.57636505506466],[81.657757032126,22.58443386450671],[81.65145462047943,22.58087710736897],[81.64490144031892,22.58629855369809],[81.64925512484464,22.58912143197836],[81.64560799230135,22.60504097862855],[81.64860237601786,22.6153183720562],[81.66068829165194,22.61927736046117],[81.66288255650176,22.62743739573239],[81.6845797170947,22.64776966789012],[81.6994656581104,22.64477314852874],[81.71776186628519,22.65210041994279],[81.72780949278622,22.67528397792029],[81.7422098507484,22.67371868026947],[81.75214666721342,22.65438652231757],[81.74713923250948,22.6494409222881],[81.75115466470426,22.64394405374075],[81.77250427878356,22.66822001247044],[81.77288661506574,22.68446431220871],[81.76130536846894,22.6971915209915],[81.75331567765777,22.72372777686311],[81.75540505677536,22.73362209798324],[81.77002764186206,22.73544967755918],[81.76910447120389,22.74181512371186],[81.77312952739464,22.75049681970348],[81.78006862698628,22.75122985037741],[81.79429889328983,22.76650877305492],[81.78346098891829,22.7791745053672],[81.78197143561167,22.81058812911715],[81.76962004147033,22.82754842535099],[81.76159201490228,22.83008876910356],[81.77648018062808,22.85146837015939],[81.77573585234894,22.87420998365229],[81.81699760806373,22.88211041936733],[81.83349257534054,22.88073454225039],[81.84202392405514,22.88763330281907],[81.86156962681393,22.88908657902528],[81.86941393587675,22.89433961855831],[81.86609269945556,22.91567543837387],[81.8781713699724,22.9096086204641],[81.91963010253002,22.94686317157903],[81.9463404819274,22.95678034581733],[81.95036873337088,22.98283741096045],[81.94463294530085,22.98900691330125],[81.93663561434376,23.01755948632502],[81.93003729341848,23.02112228761078],[81.9320441474689,23.02614379211838],[81.92501799083107,23.03099989119758],[81.9225914670746,23.04211946638739],[81.92951084100369,23.04983908465731],[81.93045614071045,23.06149902917472],[81.94360759941017,23.0639814890167],[81.94604000540977,23.07461753406414],[81.94286746328054,23.07839390725651],[81.96216831354896,23.07423807845088],[81.96834692251421,23.08039273092338],[81.98171911303959,23.07996224494294],[81.99138486557221,23.08595293004471],[82.00765836081139,23.07933489117708],[82.01855176585669,23.08425106815028],[82.02244862412098,23.07962588506739],[82.03568664575357,23.08078595286876],[82.0549393230324,23.10689411357851],[82.07154310917096,23.11813948521186],[82.09352607141399,23.10879543983547],[82.10995004158396,23.10923117088198],[82.1215073786526,23.10411204524379],[82.12239933552613,23.10392257389534],[82.13797613394512,23.11202389623425],[82.14001483517795,23.13206555047561],[82.16144243539719,23.14350847708789],[82.16083912448664,23.16185841851851],[82.14441932320705,23.16569378822405],[82.14963946423369,23.17690419699634],[82.14467994036855,23.17948260483354],[82.14369856534188,23.18705025528815],[82.14819793824768,23.18900729714463],[82.14401867725668,23.19501724232551],[82.14929958128958,23.19744543290589],[82.15374130915353,23.2123742687805],[82.14855103399287,23.22008886228528]]],[[[83.32978148725181,24.1014409568337],[83.34872980007123,24.09631475485315],[83.3639801577357,24.10304947576406],[83.38832231911513,24.09962456622294],[83.40029070786255,24.09232419040209],[83.405729714978,24.08101497301506],[83.43219241249875,24.08591562550828],[83.43817434161005,24.07500071898357],[83.43752627623816,24.05820833926207],[83.45171502455236,24.04271974625842],[83.4784526564852,24.0410579629009],[83.51600048569242,24.0254654508515],[83.51592825872517,24.024194210329],[83.515899435798,24.02368690181628],[83.52387642198894,24.00979739988856],[83.51444213603953,23.99811996639364],[83.51545349965134,23.98027989520195],[83.54789820567176,23.93636696932012],[83.5470484334727,23.91409749779828],[83.55427776997257,23.89612731777732],[83.56047214611233,23.89236710608796],[83.57635651867136,23.89278936296543],[83.58581400117643,23.88628946916139],[83.5840723361897,23.87797357896704],[83.56989082764902,23.86918239976142],[83.57115897549103,23.8622858816616],[83.58935597593201,23.86317800186855],[83.61045979719606,23.85382262798822],[83.61879124306998,23.85511847644837],[83.64457134605081,23.84648703820808],[83.65952857000076,23.84918974305872],[83.66728105986556,23.84224272885397],[83.66479495698786,23.8275793803076],[83.6746866953059,23.82692136328054],[83.6825390904829,23.81935315388305],[83.69107728933703,23.82624637368443],[83.70404309277093,23.82206003921572],[83.70762403804954,23.81616563409622],[83.70477032660355,23.80467941598601],[83.72246840780387,23.78682339735168],[83.7213580346767,23.77197731142877],[83.7376074392471,23.76055663312219],[83.74081754705126,23.73082825826498],[83.7417967685717,23.72870136627383],[83.7460347045396,23.71954774421579],[83.74260679611558,23.70487319319073],[83.72283053048776,23.68591250604282],[83.73881861867225,23.66681419513492],[83.76108866509303,23.65167781481247],[83.75201286559188,23.63882496288616],[83.75922605140671,23.62619494573075],[83.77529059819886,23.62182848301559],[83.77364550141621,23.61005773730657],[83.76684640623849,23.60577135597169],[83.76744405399111,23.59590621615948],[83.79002039378554,23.57693093378205],[83.78191079925745,23.55478587491236],[83.78313633589474,23.54219207470016],[83.75898889116942,23.54271814355719],[83.7555582339146,23.56675390459481],[83.74176661477043,23.57178086586424],[83.73090977968147,23.55047025582807],[83.74006213607939,23.52046482185944],[83.73601421526361,23.50378505319513],[83.71166957163774,23.4872993369726],[83.69418458526766,23.49608610535938],[83.66595866210515,23.48975675338669],[83.65408420113748,23.50088116103526],[83.62829811187675,23.45852092805127],[83.60323041462878,23.44754660119901],[83.58414130125388,23.45569984910934],[83.55880342763383,23.45803012203037],[83.56555940418275,23.43303967629775],[83.56209848239537,23.42532818902254],[83.55417538444127,23.42202937022886],[83.54236813511152,23.42122585817396],[83.52629082663293,23.42983179585447],[83.49876369624542,23.43105283177178],[83.49019401271002,23.43521844684387],[83.48413465989846,23.42897173024462],[83.47948929408398,23.44738595898422],[83.46738021654923,23.44718963079696],[83.46583066765355,23.4365730011127],[83.46136849112958,23.43847361114597],[83.4568754091886,23.46054844869029],[83.45027991324619,23.4630123666106],[83.44539117501257,23.46099362327521],[83.44165841758743,23.44102520310964],[83.42498142450322,23.42444249656865],[83.41804297481349,23.42554303677162],[83.41306580097005,23.43999157890341],[83.39970704647716,23.44577098790595],[83.40604739105623,23.45961102943554],[83.39790155749994,23.46233096368437],[83.40964263996304,23.4708148497152],[83.42092690058288,23.49101330499909],[83.44584844357014,23.49378165156375],[83.45374712414986,23.50345650685963],[83.455734692749,23.51909018690345],[83.4480041513594,23.54183096549308],[83.44124698513937,23.54811301794639],[83.42893141172149,23.54724325981119],[83.42401802110261,23.52798295898016],[83.40383536087033,23.51308570089189],[83.36009598687589,23.5146482836564],[83.33664027734693,23.51502781187838],[83.31601552656461,23.50999002009392],[83.27479874525932,23.51597264062956],[83.25613643611493,23.51175299848705],[83.25131621803524,23.51956461266303],[83.2531029800192,23.54095315759716],[83.28988598270716,23.55399988535097],[83.29265546435411,23.56303092146903],[83.33278074462991,23.56148940290093],[83.34145704705209,23.57650429705118],[83.35586248000692,23.57399453057077],[83.36420086759176,23.5829057855418],[83.37411549718057,23.58038594087176],[83.39260779667954,23.58376635994976],[83.38334773766816,23.62893857551508],[83.38891233182173,23.64060626301482],[83.39959685511722,23.64214346549116],[83.41049866572578,23.65950312341758],[83.41890837714773,23.66357622606147],[83.42114095475193,23.68005756003644],[83.42844200968985,23.69203462519123],[83.42103736888315,23.70026016486509],[83.42251397327439,23.7086056697901],[83.41031262116033,23.71410794288298],[83.39823705391561,23.73067233438304],[83.3681093041098,23.74728294021766],[83.35972362171216,23.75754469702361],[83.36886744578862,23.78236346281931],[83.38689004955319,23.78405921575591],[83.38784329002192,23.7873380751515],[83.37082039236296,23.79292443538666],[83.35118489636763,23.79235986395527],[83.3381529781336,23.80521896727825],[83.33757146875489,23.83856379867432],[83.35019138586884,23.852114099005],[83.354520529849,23.87714166878122],[83.33926388229823,23.88630008657647],[83.33487063166687,23.89753599049479],[83.31835423619808,23.90089725928499],[83.26899008349102,23.88464629869128],[83.2574328637785,23.88742809166519],[83.24601567855353,23.88191791861395],[83.24358357103245,23.8742393529041],[83.21159373954649,23.87330297591757],[83.19638818875605,23.89118782530177],[83.21115097701025,23.9059896583402],[83.20840242043975,23.91305580858395],[83.2004264999209,23.91546659526853],[83.20819514367979,23.92223826481725],[83.20391148533199,23.9288352610702],[83.21617151890625,23.93797000691668],[83.2155788701221,23.94580417050862],[83.22026613688233,23.94934213017778],[83.22340164500226,23.96040869946644],[83.21890696421187,23.9712505354204],[83.22722941305408,23.97784187170401],[83.22357598134951,23.98652693209432],[83.23073129122452,23.98909410478089],[83.23292324449721,23.99561676389511],[83.24254308620611,23.99720589791568],[83.23895075904132,24.00594145826682],[83.24637163484525,24.01329871725259],[83.25382579581355,24.01469523155567],[83.26414784087535,24.00923747916572],[83.27271382557429,24.01793536731221],[83.27921997107372,24.01819436772668],[83.28366871043103,24.03286299605659],[83.28198107214669,24.04947284735903],[83.29516263563143,24.07207226250014],[83.31435568878351,24.09007948675889],[83.32116965324073,24.10561526585697],[83.32978148725181,24.1014409568337]]]]},"properties":{"ST_NAME":"Chhattisgarh"}}]}